[{"OBJECT_NAME":"STARLINK-4123","OBJECT_ID":"2022-101N","EPOCH":"2026-03-09T09:26:07.943136","MEAN_MOTION":15.08837084,"ECCENTRICITY":0.00010861,"INCLINATION":53.2173,"RA_OF_ASC_NODE":75.4527,"ARG_OF_PERICENTER":82.3044,"MEAN_ANOMALY":277.8072,"EPHEMERIS_TYPE":0,"CLASSIFICATION_TYPE":"U","NORAD_CAT_ID":53539,"ELEMENT_SET_NO":999,"REV_AT_EPOCH":19612,"BSTAR":-0.00017993359,"MEAN_MOTION_DOT":-3.15e-5,"MEAN_MOTION_DDOT":0},{"OBJECT_NAME":"FENGYUN 1C DEB","OBJECT_ID":"1999-025CDM","EPOCH":"2026-03-09T06:24:55.905408","MEAN_MOTION":15.0430028,"ECCENTRICITY":0.00202824,"INCLINATION":99.0326,"RA_OF_ASC_NODE":346.4521,"ARG_OF_PERICENTER":26.5298,"MEAN_ANOMALY":133.8427,"EPHEMERIS_TYPE":0,"CLASSIFICATION_TYPE":"U","NORAD_CAT_ID":31714,"ELEMENT_SET_NO":999,"REV_AT_EPOCH":97342,"BSTAR":0.0098433176,"MEAN_MOTION_DOT":0.00140271,"MEAN_MOTION_DDOT":0}]
